STARLINK-31974          
1 59885U 24100A   26068.21066101  .00000158  00000+0  15241-4 0  9991
2 59885  42.9979 128.0999 0000752 191.7836 168.2999 15.27569115100988
BANDWAGON-4 OBJECT M    
1 66304U 25248M   26068.03503276  .00023645  00000+0  95704-3 0  9995
2 66304  45.4108 294.9904 0012944 207.5285 152.4918 15.24295413 18037
